[{"OBJECT_NAME":"ONEWEB-0085","OBJECT_ID":"2020-020Q","EPOCH":"2026-03-09T22:41:42.827712","MEAN_MOTION":13.11416682,"ECCENTRICITY":0.00018325,"INCLINATION":87.8865,"RA_OF_ASC_NODE":40.7983,"ARG_OF_PERICENTER":82.3092,"MEAN_ANOMALY":277.8243,"EPHEMERIS_TYPE":0,"CLASSIFICATION_TYPE":"U","NORAD_CAT_ID":45438,"ELEMENT_SET_NO":999,"REV_AT_EPOCH":28966,"BSTAR":-0.0012789285,"MEAN_MOTION_DOT":-4.41e-6,"MEAN_MOTION_DDOT":0},{"OBJECT_NAME":"COSMOS 1691 DEB","OBJECT_ID":"1985-094L","EPOCH":"2026-03-07T22:09:28.514880","MEAN_MOTION":13.19792324,"ECCENTRICITY":0.00487005,"INCLINATION":82.6355,"RA_OF_ASC_NODE":224.5327,"ARG_OF_PERICENTER":346.5093,"MEAN_ANOMALY":138.7403,"EPHEMERIS_TYPE":0,"CLASSIFICATION_TYPE":"U","NORAD_CAT_ID":16267,"ELEMENT_SET_NO":999,"REV_AT_EPOCH":53103,"BSTAR":0.0093500911,"MEAN_MOTION_DOT":3.784e-5,"MEAN_MOTION_DDOT":0}]
